{"type": "FeatureCollection", "features": [ {"type": "Feature", "properties": {"norad_id": 66496, "name": "STARLINK-35909", "group": "last-30-days", "lat": 31.66064605445327, "lon": -134.8380804295622, "alt_km": 342.48836109353397, "timestamp": "2025-12-02T19:35:49.343242+00:00", "meta": {"OBJECT_NAME": "STARLINK-35909", "OBJECT_ID": "2025-263M", "EPOCH": "2025-12-02T12:00:05.998752", "MEAN_MOTION": 15.75400043, "ECCENTRICITY": 0.0001498, "INCLINATION": 42.9986, "RA_OF_ASC_NODE": 185.644, "ARG_OF_PERICENTER": 276.4235, "MEAN_ANOMALY": 137.5621, "EPHEMERIS_TYPE": 0, "CLASSIFICATION_TYPE": "U", "NORAD_CAT_ID": 66496, "ELEMENT_SET_NO": 999, "REV_AT_EPOCH": 399, "BSTAR": -0.011881, "MEAN_MOTION_DOT": -0.01645736, "MEAN_MOTION_DDOT": 0}, "tle": {"line1": "1 66496U 25263M   25336.50006943 -.01645736  00000+0 -11881-1 0  9998", "line2": "2 66496  42.9986 185.6440 0001498 276.4235 137.5621 15.75400043  3995"}}, "geometry": {"type": "Point", "coordinates": [-134.8380804295622, 31.66064605445327]}}, {"type": "Feature", "properties": {"norad_id": 66497, "name": "STARLINK-35899", "group": "last-30-days", "lat": 32.624989698438654, "lon": -132.88809553143628, "alt_km": 342.3228535764938, "timestamp": "2025-12-02T19:35:49.343254+00:00", "meta": {"OBJECT_NAME": "STARLINK-35899", "OBJECT_ID": "2025-263N", "EPOCH": "2025-12-02T12:00:05.998752", "MEAN_MOTION": 15.75405258, "ECCENTRICITY": 0.0001495, "INCLINATION": 42.9986, "RA_OF_ASC_NODE": 185.6385, "ARG_OF_PERICENTER": 278.2627, "MEAN_ANOMALY": 137.6325, "EPHEMERIS_TYPE": 0, "CLASSIFICATION_TYPE": "U", "NORAD_CAT_ID": 66497, "ELEMENT_SET_NO": 999, "REV_AT_EPOCH": 399, "BSTAR": -0.01191, "MEAN_MOTION_DOT": -0.01649627, "MEAN_MOTION_DDOT": 0}, "tle": {"line1": "1 66497U 25263N   25336.50006943 -.01649627  00000+0 -11910-1 0  9995", "line2": "2 66497  42.9986 185.6385 0001495 278.2627 137.6325 15.75405258  3991"}}, "geometry": {"type": "Point", "coordinates": [-132.88809553143628, 32.624989698438654]}}, {"type": "Feature", "properties": {"norad_id": 66498, "name": "STARLINK-35907", "group": "last-30-days", "lat": 33.55877885882861, "lon": -130.89383377592011, "alt_km": 342.5684306478406, "timestamp": "2025-12-02T19:35:49.343265+00:00", "meta": {"OBJECT_NAME": "STARLINK-35907", "OBJECT_ID": "2025-263P", "EPOCH": "2025-12-02T12:00:05.998752", "MEAN_MOTION": 15.75427238, "ECCENTRICITY": 0.000155, "INCLINATION": 42.9984, "RA_OF_ASC_NODE": 185.6341, "ARG_OF_PERICENTER": 252.8646, "MEAN_ANOMALY": 164.9454, "EPHEMERIS_TYPE": 0, "CLASSIFICATION_TYPE": "U", "NORAD_CAT_ID": 66498, "ELEMENT_SET_NO": 999, "REV_AT_EPOCH": 399, "BSTAR": -0.012202, "MEAN_MOTION_DOT": -0.01686906, "MEAN_MOTION_DDOT": 0}, "tle": {"line1": "1 66498U 25263P   25336.50006943 -.01686906  00000+0 -12202-1 0  9992", "line2": "2 66498  42.9984 185.6341 0001550 252.8646 164.9454 15.75427238  3991"}}, "geometry": {"type": "Point", "coordinates": [-130.89383377592011, 33.55877885882861]}}, {"type": "Feature", "properties": {"norad_id": 66499, "name": "STARLINK-35816", "group": "last-30-days", "lat": 35.3337603852523, "lon": -126.75884341319627, "alt_km": 342.1264890091843, "timestamp": "2025-12-02T19:35:49.343277+00:00", "meta": {"OBJECT_NAME": "STARLINK-35816", "OBJECT_ID": "2025-263Q", "EPOCH": "2025-12-02T12:00:05.998752", "MEAN_MOTION": 15.75332954, "ECCENTRICITY": 0.0001534, "INCLINATION": 42.9986, "RA_OF_ASC_NODE": 185.6243, "ARG_OF_PERICENTER": 274.3238, "MEAN_ANOMALY": 147.3919, "EPHEMERIS_TYPE": 0, "CLASSIFICATION_TYPE": "U", "NORAD_CAT_ID": 66499, "ELEMENT_SET_NO": 999, "REV_AT_EPOCH": 399, "BSTAR": -0.011479, "MEAN_MOTION_DOT": -0.01591891, "MEAN_MOTION_DDOT": 0}, "tle": {"line1": "1 66499U 25263Q   25336.50006943 -.01591891  00000+0 -11479-1 0  9996", "line2": "2 66499  42.9986 185.6243 0001534 274.3238 147.3919 15.75332954  3994"}}, "geometry": {"type": "Point", "coordinates": [-126.75884341319627, 35.3337603852523]}}, {"type": "Feature", "properties": {"norad_id": 66500, "name": "STARLINK-35894", "group": "last-30-days", "lat": 34.461706407216965, "lon": -128.85279858135777, "alt_km": 342.39085518861975, "timestamp": "2025-12-02T19:35:49.343287+00:00", "meta": {"OBJECT_NAME": "STARLINK-35894", "OBJECT_ID": "2025-263R", "EPOCH": "2025-12-02T12:00:05.998752", "MEAN_MOTION": 15.75442685, "ECCENTRICITY": 0.0001841, "INCLINATION": 42.9985, "RA_OF_ASC_NODE": 185.6296, "ARG_OF_PERICENTER": 277.0909, "MEAN_ANOMALY": 142.6366, "EPHEMERIS_TYPE": 0, "CLASSIFICATION_TYPE": "U", "NORAD_CAT_ID": 66500, "ELEMENT_SET_NO": 999, "REV_AT_EPOCH": 399, "BSTAR": -0.012681, "MEAN_MOTION_DOT": -0.01746382, "MEAN_MOTION_DDOT": 0}, "tle": {"line1": "1 66500U 25263R   25336.50006943 -.01746382  00000+0 -12681-1 0  9992", "line2": "2 66500  42.9985 185.6296 0001841 277.0909 142.6366 15.75442685  3997"}}, "geometry": {"type": "Point", "coordinates": [-128.85279858135777, 34.461706407216965]}}, {"type": "Feature", "properties": {"norad_id": 66501, "name": "STARLINK-35897", "group": "last-30-days", "lat": 36.161767623943454, "lon": -124.63813006373198, "alt_km": 342.01182755572154, "timestamp": "2025-12-02T19:35:49.343298+00:00", "meta": {"OBJECT_NAME": "STARLINK-35897", "OBJECT_ID": "2025-263S", "EPOCH": "2025-12-02T12:00:05.998752", "MEAN_MOTION": 15.75427733, "ECCENTRICITY": 0.000139, "INCLINATION": 42.9985, "RA_OF_ASC_NODE": 185.6193, "ARG_OF_PERICENTER": 263.6298, "MEAN_ANOMALY": 159.9376, "EPHEMERIS_TYPE": 0, "CLASSIFICATION_TYPE": "U", "NORAD_CAT_ID": 66501, "ELEMENT_SET_NO": 999, "REV_AT_EPOCH": 399, "BSTAR": -0.012235, "MEAN_MOTION_DOT": -0.01690886, "MEAN_MOTION_DDOT": 0}, "tle": {"line1": "1 66501U 25263S   25336.50006943 -.01690886  00000+0 -12235-1 0  9995", "line2": "2 66501  42.9985 185.6193 0001390 263.6298 159.9376 15.75427733  3994"}}, "geometry": {"type": "Point", "coordinates": [-124.63813006373198, 36.161767623943454]}}, {"type": "Feature", "properties": {"norad_id": 66502, "name": "STARLINK-35922", "group": "last-30-days", "lat": 38.412069205167214, "lon": -117.9964091682543, "alt_km": 341.7365626269966, "timestamp": "2025-12-02T19:35:49.343307+00:00", "meta": {"OBJECT_NAME": "STARLINK-35922", "OBJECT_ID": "2025-263T", "EPOCH": "2025-12-02T12:00:05.998752", "MEAN_MOTION": 15.75402718, "ECCENTRICITY": 0.0001756, "INCLINATION": 42.9985, "RA_OF_ASC_NODE": 185.6048, "ARG_OF_PERICENTER": 278.1612, "MEAN_ANOMALY": 151.1555, "EPHEMERIS_TYPE": 0, "CLASSIFICATION_TYPE": "U", "NORAD_CAT_ID": 66502, "ELEMENT_SET_NO": 999, "REV_AT_EPOCH": 399, "BSTAR": -0.011906, "MEAN_MOTION_DOT": -0.01649105, "MEAN_MOTION_DDOT": 0}, "tle": {"line1": "1 66502U 25263T   25336.50006943 -.01649105  00000+0 -11906-1 0  9998", "line2": "2 66502  42.9985 185.6048 0001756 278.1612 151.1555 15.75402718  3990"}}, "geometry": {"type": "Point", "coordinates": [-117.9964091682543, 38.412069205167214]}}, {"type": "Feature", "properties": {"norad_id": 66503, "name": "STARLINK-35917", "group": "last-30-days", "lat": 39.744391788658284, "lon": -113.14954444535483, "alt_km": 339.7475646696221, "timestamp": "2025-12-02T19:35:49.343340+00:00", "meta": {"OBJECT_NAME": "STARLINK-35917", "OBJECT_ID": "2025-263U", "EPOCH": "2025-12-02T06:00:02.999808", "MEAN_MOTION": 15.75145427, "ECCENTRICITY": 0.00013803, "INCLINATION": 42.9986, "RA_OF_ASC_NODE": 187.112, "ARG_OF_PERICENTER": 255.9733, "MEAN_ANOMALY": 197.7444, "EPHEMERIS_TYPE": 0, "CLASSIFICATION_TYPE": "U", "NORAD_CAT_ID": 66503, "ELEMENT_SET_NO": 999, "REV_AT_EPOCH": 395, "BSTAR": -0.0018373401, "MEAN_MOTION_DOT": -0.00274986, "MEAN_MOTION_DDOT": 0}, "tle": {"line1": "1 66503U 25263U   25336.25003472 -.00274986  00000+0 -18373-2 0  9991", "line2": "2 66503  42.9986 187.1120 0001380 255.9733 197.7444 15.75145427  3950"}}, "geometry": {"type": "Point", "coordinates": [-113.14954444535483, 39.744391788658284]}}, {"type": "Feature", "properties": {"norad_id": 66504, "name": "STARLINK-35916", "group": "last-30-days", "lat": -42.778819313861135, "lon": 87.32011907310977, "alt_km": 400.8186510959522, "timestamp": "2025-12-02T19:35:49.343352+00:00", "meta": {"OBJECT_NAME": "STARLINK-35916", "OBJECT_ID": "2025-263V", "EPOCH": "2025-12-02T12:00:05.998752", "MEAN_MOTION": 15.57912988, "ECCENTRICITY": 0.0001696, "INCLINATION": 42.9989, "RA_OF_ASC_NODE": 185.9536, "ARG_OF_PERICENTER": 251.7495, "MEAN_ANOMALY": 37.1963, "EPHEMERIS_TYPE": 0, "CLASSIFICATION_TYPE": "U", "NORAD_CAT_ID": 66504, "ELEMENT_SET_NO": 999, "REV_AT_EPOCH": 399, "BSTAR": -0.03682, "MEAN_MOTION_DOT": -0.02461792, "MEAN_MOTION_DDOT": 0}, "tle": {"line1": "1 66504U 25263V   25336.50006943 -.02461792  00000+0 -36820-1 0  9997", "line2": "2 66504  42.9989 185.9536 0001696 251.7495  37.1963 15.57912988  3991"}}, "geometry": {"type": "Point", "coordinates": [87.32011907310977, -42.778819313861135]}}, {"type": "Feature", "properties": {"norad_id": 66505, "name": "STARLINK-34766", "group": "last-30-days", "lat": 36.95156954738219, "lon": -122.47342446395936, "alt_km": 342.0587465464214, "timestamp": "2025-12-02T19:35:49.343364+00:00", "meta": {"OBJECT_NAME": "STARLINK-34766", "OBJECT_ID": "2025-263W", "EPOCH": "2025-12-02T12:00:05.998752", "MEAN_MOTION": 15.75424339, "ECCENTRICITY": 0.0001595, "INCLINATION": 42.9986, "RA_OF_ASC_NODE": 185.6139, "ARG_OF_PERICENTER": 258.2195, "MEAN_ANOMALY": 167.2599, "EPHEMERIS_TYPE": 0, "CLASSIFICATION_TYPE": "U", "NORAD_CAT_ID": 66505, "ELEMENT_SET_NO": 999, "REV_AT_EPOCH": 399, "BSTAR": -0.012148, "MEAN_MOTION_DOT": -0.01680173, "MEAN_MOTION_DDOT": 0}, "tle": {"line1": "1 66505U 25263W   25336.50006943 -.01680173  00000+0 -12148-1 0  9990", "line2": "2 66505  42.9986 185.6139 0001595 258.2195 167.2599 15.75424339  3990"}}, "geometry": {"type": "Point", "coordinates": [-122.47342446395936, 36.95156954738219]}}]}